ONEWEB-0156             
1 48052U 21025L   23237.32048489  .00000334  00000+0  87944-3 0  9998
2 48052  87.9016 164.5184 0001984  80.8866 279.2488 13.13470123118789
ONEWEB-0161             
1 48053U 21025M   23237.29297457 -.00000058  00000+0 -19350-3 0  9997
2 48053  87.9085 164.4918 0002305  72.5188 287.6193 13.13470998118712
ONEWEB-0158             
1 48054U 21025N   23237.33317726  .00000334  00000+0  88101-3 0  9990
2 48054  87.9011 164.5239 0001842  86.7120 273.4219 13.13467073118832
ONEWEB-0157             
1 48055U 21025P   23237.35645414 -.00000050  00000+0 -17172-3 0  9998
2 48055  87.9092 164.4816 0002107  71.5946 288.5412 13.13471157118789
ONEWEB-0162             
1 48056U 21025Q   23237.31834624 -.00000182  00000+0 -53446-3 0  9998
2 48056  87.9089 164.4881 0001961  75.6692 284.4655 13.13469635118724
ONEWEB-0155             
1 48057U 21025R   23236.34921041  .00000127  00000+0  31392-3 0  9994
2 48057  87.9094 164.6854 0002068  77.9256 282.2105 13.13467397118755
ONEWEB-0149             
1 48058U 21025S   23237.36068647 -.00000262  00000+0 -75108-3 0  9997
2 48058  87.9093 164.4841 0001771  67.4190 292.7127 13.13464521118701
ONEWEB-0148             
1 48059U 21025T   23237.32471319  .00000366  00000+0  96665-3 0  9992
2 48059  87.9086 164.5004 0001900  53.3023 306.8280 13.13468927118812
